NORAD_CAT_ID,OBJECT_NAME,OBJECT_TYPE,EPOCH,MEAN_MOTION,ECCENTRICITY,INCLINATION,RA_OF_ASC_NODE,ARG_OF_PERICENTER,MEAN_ANOMALY,BSTAR,MEAN_MOTION_DOT,MEAN_MOTION_DDOT,TLE_LINE0,TLE_LINE1,TLE_LINE2,SEMIMAJOR_AXIS,PERIOD,APOGEE,PERIGEE,DECAYED
53784.0,STARLINK-4687,PAYLOAD,2023-06-22 22:10:12,15.088409,0.0001086,53.2164,41.8811,79.2975,280.814,0.00014957,2.093e-05,0.0,0 STARLINK-4687,1 53784U 22111M   23173.92375948  .00002093  00000-0  14957-3 0  9990,2 53784  53.2164  41.8811 0001086  79.2975 280.8140 15.08840900 43316,6917.878,95.437,540.494,538.991,0.0
53784.0,STARLINK-4687,PAYLOAD,2023-06-24 01:11:45,15.08845673,0.0001061,53.2169,36.8262,90.6542,269.4572,8.1321e-05,1.007e-05,0.0,0 STARLINK-4687,1 53784U 22111M   23175.04983727  .00001007  00000-0  81321-4 0  9999,2 53784  53.2169  36.8262 0001061  90.6542 269.4572 15.08845673 43487,6917.863,95.437,540.462,538.994,0.0
53784.0,STARLINK-4687,PAYLOAD,2023-06-24 07:33:19,15.08836742,9.9e-05,53.2179,35.6346,72.7604,287.3496,4.3968e-05,4.12e-06,0.0,0 STARLINK-4687,1 53784U 22111M   23175.31480439  .00000412  00000-0  43968-4 0  9995,2 53784  53.2179  35.6346 0000990  72.7604 287.3496 15.08836742 43524,6917.89,95.438,540.44,539.07,0.0
53784.0,STARLINK-4687,PAYLOAD,2023-06-25 01:02:32,15.08849217,0.0001107,53.2177,32.3653,90.4296,269.6823,0.00010623,1.404e-05,0.0,0 STARLINK-4687,1 53784U 22111M   23176.04343666  .00001404  00000-0  10623-3 0  9999,2 53784  53.2177  32.3653 0001107  90.4296 269.6823 15.08849217 43632,6917.852,95.437,540.483,538.951,0.0
53784.0,STARLINK-4687,PAYLOAD,2023-06-25 07:24:06,15.08836191,9.72e-05,53.2198,31.1797,109.2598,250.8499,3.2844e-05,2.35e-06,0.0,0 STARLINK-4687,1 53784U 22111M   23176.30840660  .00000235  00000-0  32844-4 0  9995,2 53784  53.2198  31.1797 0000972 109.2598 250.8499 15.08836191 43676,6917.892,95.438,540.429,539.085,0.0
53784.0,STARLINK-4687,PAYLOAD,2023-06-25 23:17:57,15.08845945,0.0001085,53.2178,28.2015,84.5982,275.5134,0.00015367,2.159e-05,0.0,0 STARLINK-4687,1 53784U 22111M   23176.97079961  .00002159  00000-0  15367-3 0  9993,2 53784  53.2178  28.2015 0001085  84.5982 275.5134 15.08845945 43770,6917.862,95.437,540.478,538.977,0.0
53784.0,STARLINK-4687,PAYLOAD,2023-06-26 07:14:53,15.08827571,4.19e-05,53.2181,26.7165,95.9619,264.1421,-9.9783e-05,-1.875e-05,0.0,0 STARLINK-4687,1 53784U 22111M   23177.30200787 -.00001875  00000-0 -99783-4 0  9994,2 53784  53.2181  26.7165 0000419  95.9619 264.1421 15.08827571 43820,6917.918,95.438,540.073,539.494,0.0
53784.0,STARLINK-4687,PAYLOAD,2023-06-26 21:33:21,15.0883814,0.0001053,53.2169,24.0393,86.4346,273.6766,9.4503e-05,1.216e-05,0.0,0 STARLINK-4687,1 53784U 22111M   23177.89816801  .00001216  00000-0  94503-4 0  9990,2 53784  53.2169  24.0393 0001053  86.4346 273.6766 15.08838140 43918,6917.886,95.438,540.48,539.023,0.0
53784.0,STARLINK-4687,PAYLOAD,2023-06-27 22:59:31,15.08856647,0.0001047,53.2168,19.2816,78.7597,281.3513,0.00079663,0.00012419,0.0,0 STARLINK-4687,1 53784U 22111M   23178.95800659  .00012419  00000-0  79663-3 0  9998,2 53784  53.2168  19.2816 0001047  78.7597 281.3513 15.08856647 44074,6917.83,95.437,540.419,538.97,0.0
53784.0,STARLINK-4687,PAYLOAD,2023-06-28 18:04:09,15.08847956,9.81e-05,53.2168,15.7134,90.1884,269.922,0.00036758,5.568e-05,0.0,0 STARLINK-4687,1 53784U 22111M   23179.75288679  .00005568  00000-0  36758-3 0  9994,2 53784  53.2168  15.7134 0000981  90.1884 269.9220 15.08847956 44194,6917.856,95.437,540.4,539.042,0.0
53784.0,STARLINK-4687,PAYLOAD,2023-06-29 19:30:19,15.08841148,0.0001067,53.217,10.9543,79.1052,281.0061,6.483e-05,7.44e-06,0.0,0 STARLINK-4687,1 53784U 22111M   23180.81272951  .00000744  00000-0  64830-4 0  9993,2 53784  53.2170  10.9543 0001067  79.1052 281.0061 15.08841148 44351,6917.877,95.437,540.48,539.004,0.0
53784.0,STARLINK-4687,PAYLOAD,2023-07-01 04:53:25,15.0883915,9.82e-05,53.2167,4.7103,79.15,280.9602,3.1719e-05,2.17e-06,0.0,0 STARLINK-4687,1 53784U 22111M   23182.20377094  .00000217  00000-0  31719-4 0  9997,2 53784  53.2167   4.7103 0000982  79.1500 280.9602 15.08839150 44565,6917.883,95.438,540.427,539.069,0.0
53784.0,STARLINK-4687,PAYLOAD,2023-07-02 06:19:36,15.08839619,9.48e-05,53.2175,359.9531,82.7021,277.4079,7.9498e-05,9.78e-06,0.0,0 STARLINK-4687,1 53784U 22111M   23183.26361338  .00000978  00000-0  79498-4 0  9998,2 53784  53.2175 359.9531 0000948  82.7021 277.4079 15.08839619 44721,6917.882,95.438,540.402,539.091,0.0
53784.0,STARLINK-4687,PAYLOAD,2023-07-03 10:56:32,15.08839858,9.27e-05,53.2178,354.6005,87.3716,272.7383,9.8745e-05,1.284e-05,0.0,0 STARLINK-4687,1 53784U 22111M   23184.45593299  .00001284  00000-0  98745-4 0  9990,2 53784  53.2178 354.6005 0000927  87.3716 272.7383 15.08839858 44902,6917.881,95.438,540.387,539.105,0.0
53784.0,STARLINK-4687,PAYLOAD,2023-07-04 17:08:52,15.08838467,0.0001047,53.2178,348.9508,78.665,281.446,8.598e-06,-1.51e-06,0.0,0 STARLINK-4687,1 53784U 22111M   23185.71449662 -.00000151  00000-0  85980-5 0  9995,2 53784  53.2178 348.9508 0001047  78.6650 281.4460 15.08838467 45099,6917.885,95.438,540.474,539.026,0.0
53784.0,STARLINK-4687,PAYLOAD,2023-07-05 04:16:34,15.08825182,0.0001084,53.2178,346.8685,84.8686,275.2429,0.00023513,3.455e-05,0.0,0 STARLINK-4687,1 53784U 22111M   23186.17818028  .00003455  00000-0  23513-3 0  9993,2 53784  53.2178 346.8685 0001084  84.8686 275.2429 15.08825182 45165,6917.926,95.438,540.541,539.041,0.0
53784.0,STARLINK-4687,PAYLOAD,2023-07-05 16:59:39,15.08843958,0.0001069,53.2177,344.489,79.4953,280.616,3.8694e-05,3.28e-06,0.0,0 STARLINK-4687,1 53784U 22111M   23186.70809159  .00000328  00000-0  38694-4 0  9990,2 53784  53.2177 344.4890 0001069  79.4953 280.6160 15.08843958 45248,6917.868,95.437,540.473,538.994,0.0
53784.0,STARLINK-4687,PAYLOAD,2023-07-06 10:28:53,15.08837412,0.0001101,53.2175,341.2173,85.9692,274.1426,8.8945e-05,1.128e-05,0.0,0 STARLINK-4687,1 53784U 22111M   23187.43673432  .00001128  00000-0  88945-4 0  9997,2 53784  53.2175 341.2173 0001101  85.9692 274.1426 15.08837412 45357,6917.888,95.438,540.515,538.992,0.0
53784.0,STARLINK-4687,PAYLOAD,2023-07-06 20:01:12,15.08845846,0.0001123,53.218,339.4333,86.1912,273.9209,0.00011837,1.597e-05,0.0,0 STARLINK-4687,1 53784U 22111M   23187.83416825  .00001597  00000-0  11837-3 0  9997,2 53784  53.2180 339.4333 0001123  86.1912 273.9209 15.08845846 45415,6917.863,95.437,540.504,538.951,0.0
53784.0,STARLINK-4687,PAYLOAD,2023-07-07 10:19:41,15.0883858,8.81e-05,53.2186,336.7585,86.1599,273.9494,1.8833e-05,1.2e-07,0.0,0 STARLINK-4687,1 53784U 22111M   23188.43033602  .00000012  00000-0  18833-4 0  9997,2 53784  53.2186 336.7585 0000881  86.1599 273.9494 15.08838580 45504,6917.885,95.438,540.359,539.14,0.0
53784.0,STARLINK-4687,PAYLOAD,2023-07-07 16:41:13,15.08843979,9.54e-05,53.2184,335.5692,84.8646,275.2455,6.8807e-05,8.08e-06,0.0,0 STARLINK-4687,1 53784U 22111M   23188.69529161  .00000808  00000-0  68807-4 0  9994,2 53784  53.2184 335.5692 0000954  84.8646 275.2455 15.08843979 45541,6917.868,95.437,540.393,539.073,0.0
53784.0,STARLINK-4687,PAYLOAD,2023-07-08 10:10:28,15.08838358,9.21e-05,53.2185,332.2989,85.0346,275.0751,2.1982e-05,6.2e-07,0.0,0 STARLINK-4687,1 53784U 22111M   23189.42393689  .00000062  00000-0  21982-4 0  9995,2 53784  53.2185 332.2989 0000921  85.0346 275.0751 15.08838358 45653,6917.885,95.438,540.388,539.113,0.0
53784.0,STARLINK-4687,PAYLOAD,2023-07-09 10:01:15,15.08831806,0.0001108,53.2191,327.8381,95.046,265.0659,-1.7446e-05,-5.65e-06,0.0,0 STARLINK-4687,1 53784U 22111M   23190.41754367 -.00000565  00000-0 -17446-4 0  9990,2 53784  53.2191 327.8381 0001108  95.0460 265.0659 15.08831806 45806,6917.905,95.438,540.537,539.004,0.0
53784.0,STARLINK-4687,PAYLOAD,2023-07-10 09:52:02,15.08840808,0.0001129,53.2197,323.3779,100.991,259.1209,7.4199e-05,8.93e-06,0.0,0 STARLINK-4687,1 53784U 22111M   23191.41113886  .00000893  00000-0  74199-4 0  9996,2 53784  53.2197 323.3779 0001129 100.9910 259.1209 15.08840808 45956,6917.878,95.438,540.524,538.962,0.0
53784.0,STARLINK-4687,PAYLOAD,2023-07-10 20:59:43,15.08849802,0.0001051,53.2188,321.2955,98.6549,261.4562,0.00013721,1.897e-05,0.0,0 STARLINK-4687,1 53784U 22111M   23191.87481067  .00001897  00000-0  13721-3 0  9993,2 53784  53.2188 321.2955 0001051  98.6549 261.4562 15.08849802 46024,6917.85,95.437,540.442,538.988,0.0
53784.0,STARLINK-4687,PAYLOAD,2023-07-11 08:07:27,15.08827559,0.0001081,53.2188,319.2145,78.1035,282.0078,8.7654e-05,1.107e-05,0.0,0 STARLINK-4687,1 53784U 22111M   23192.33850859  .00001107  00000-0  87654-4 0  9995,2 53784  53.2188 319.2145 0001081  78.1035 282.0078 15.08827559 46091,6917.918,95.438,540.531,539.036,0.0
53784.0,STARLINK-4687,PAYLOAD,2023-07-11 14:28:59,15.08838667,0.000109,53.2183,318.0246,101.0718,259.0397,0.00014966,2.095e-05,0.0,0 STARLINK-4687,1 53784U 22111M   23192.60346161  .00002095  00000-0  14966-3 0  9993,2 53784  53.2183 318.0246 0001090 101.0718 259.0397 15.08838667 46134,6917.884,95.438,540.504,538.995,0.0
53784.0,STARLINK-4687,PAYLOAD,2023-07-13 17:21:20,15.08833459,0.0001203,53.2179,308.5094,85.8133,274.2997,-2.2916e-05,-6.52e-06,0.0,0 STARLINK-4687,1 53784U 22111M   23194.72315093 -.00000652  00000-0 -22916-4 0  9992,2 53784  53.2179 308.5094 0001203  85.8133 274.2997 15.08833459 46454,6917.9,95.438,540.598,538.933,0.0
53784.0,STARLINK-4687,PAYLOAD,2023-07-14 10:50:33,15.08869578,0.0001829,53.2192,305.2383,87.7646,272.3555,-0.00020358,-3.529e-05,0.0,0 STARLINK-4687,1 53784U 22111M   23195.45177145 -.00003529  00000-0 -20358-3 0  9990,2 53784  53.2192 305.2383 0001829  87.7646 272.3555 15.08869578 46560,6917.79,95.436,540.92,538.39,0.0
53784.0,STARLINK-4687,PAYLOAD,2023-07-14 14:01:19,15.08853596,0.000108,53.2178,304.6439,82.6422,277.4693,0.00026757,3.975e-05,0.0,0 STARLINK-4687,1 53784U 22111M   23195.58425861  .00003975  00000-0  26757-3 0  9997,2 53784  53.2178 304.6439 0001080  82.6422 277.4693 15.08853596 46588,6917.839,95.437,540.451,538.957,0.0
